STARLINK-4415           
1 53465U 22099A   26194.25003472  .00082242  00000+0  44262-2 0  9997
2 53465  97.2863 313.0292 0002241  62.8966 204.0022 15.14481339  5785
STARLINK-4398           
1 53466U 22099B   26194.25003472 -.00809099  00000+0 -18959-1 0  9990
2 53466  97.6047 319.2973 0001768  82.6769 262.4945 15.44677401  5931
STARLINK-4394           
1 53467U 22099C   26194.25003472 -.00101470  00000+0 -55586-3 0  9998
2 53467  97.6027 321.0020 0000826  63.1310 185.2412 15.79978575  5939
STARLINK-4400           
1 53468U 22099D   26194.29653615  .00000008  00000+0  44511-5 0  9994
2 53468  97.2850 311.9311 0001590 121.9426 238.1957 15.05657060214870
STARLINK-4399           
1 53469U 22099E   26194.25003472  .00831551  00000+0  38079-1 0  9994
2 53469  97.2855 313.0803 0001379  79.7590 344.3922 15.18062465  5583
STARLINK-4393           
1 53470U 22099F   26194.31314779 -.00000478  00000+0 -29205-4 0  9990
2 53470  97.2824 311.9125 0001561 109.5549 250.5848 15.05653510214876
STARLINK-4316           
1 53471U 22099G   26194.25003472  .00844758  00000+0  38295-1 0  9990
2 53471  97.2860 313.0317 0001664  78.9080 242.5833 15.18377123  5731
STARLINK-4447           
1 53472U 22099H   26194.31868260  .00001285  00000+0  92963-4 0  9997
2 53472  97.2852 311.8955 0001887 121.0394 239.1019 15.05655976214878
STARLINK-4383           
1 53473U 22099J   26194.25003472  .00178512  00000+0  25747-2 0  9999
2 53473  97.6002 318.0167 0001522  63.7537  92.3659 15.55364629  5820
STARLINK-4445           
1 53474U 22099K   26194.27992036  .00000474  00000+0  36745-4 0  9998
2 53474  97.2849 311.9209 0001401 106.9688 253.1693 15.05656618214877
STARLINK-4389           
1 53475U 22099L   26194.25003472 -.00976090  00000+0 -17942-1 0  9997
2 53475  97.6051 319.4813 0001603  91.7893  26.0054 15.51686119  5937
STARLINK-4378           
1 53476U 22099M   26193.88140797  .00001045  00000+0  77960-4 0  9994
2 53476  97.3190 311.7034 0001237 117.2594 242.8759 15.04840386214819
STARLINK-4412           
1 53477U 22099N   26194.25003472  .00467387  00000+0  35325-2 0  9997
2 53477  97.6041 319.6449 0001142  59.6734  96.2710 15.71051508  5882
STARLINK-4433           
1 53478U 22099P   26194.32421765  .00000678  00000+0  50855-4 0  9998
2 53478  97.2860 311.8754 0002067 138.9015 221.2369 15.05658570214871
STARLINK-4436           
1 53479U 22099Q   26194.25003472  .00084113  00000+0  47436-2 0  9997
2 53479  97.2840 313.0615 0001276  45.2813  64.7744 15.12798126  5782
STARLINK-4442           
1 53480U 22099R   26194.25003472  .00215826  00000+0  23652-2 0  9990
2 53480  97.6038 319.6375 0001557  73.8133 160.3412 15.62546674  5695
STARLINK-4302           
1 53481U 22099S   26194.25003472 -.00831163  00000+0 -13177-1 0  9991
2 53481  97.6071 319.3432 0001668  85.7134  77.2879 15.55752941  5871
STARLINK-4360           
1 53482U 22099T   26194.26883792 -.00011330  00000+0 -78146-3 0  9999
2 53482  97.2849 311.9371 0001230 107.1465 252.9898 15.05704424214875
STARLINK-4426           
1 53484U 22099V   26194.25003472  .00083286  00000+0  38601-2 0  9997
2 53484  97.2836 313.0257 0001155  54.7038 347.8120 15.19725122  5781
STARLINK-4430           
1 53485U 22099W   26194.27161131  .00000399  00000+0  31546-4 0  9994
2 53485  97.2833 311.9059 0001328 105.2517 254.8858 15.05654255214872
STARLINK-4431           
1 53486U 22099X   26194.25003472 -.00960304  00000+0 -13680-1 0  9995
2 53486  97.6066 319.8235 0001756  85.1374 117.5044 15.58972614  5881
STARLINK-4432           
1 53487U 22099Y   26194.25003472  .00084742  00000+0  40280-2 0  9994
2 53487  97.2813 313.0491 0002437  47.3207 101.9103 15.18840404  5734
STARLINK-4421           
1 53488U 22099Z   26194.25003472  .00082538  00000+0  42386-2 0  9995
2 53488  97.2840 313.0968 0001947  46.5807 193.4670 15.16143692  5789
STARLINK-4392           
1 53489U 22099AA  26194.28726209  .00004945  00000+0  33918-3 0  9997
2 53489  97.2859 311.8959 0001093  95.9291 264.2062 15.06436239214878
STARLINK-4387           
1 53490U 22099AB  26194.25003472  .00119815  00000+0  29347-2 0  9999
2 53490  97.6049 318.3017 0001671  64.3380  60.2841 15.40285296  5806
STARLINK-4450           
1 53491U 22099AC  26194.32547582 -.00061827  00000+0 -97728-3 0  9993
2 53491  97.6041 320.0419 0001156  74.9886 285.1494 15.53611042215273
STARLINK-4451           
1 53492U 22099AD  26194.25003472  .00467151  00000+0  62054-2 0  9992
2 53492  97.6005 317.1905 0001267  84.6288  22.4903 15.56604816  5737
STARLINK-4340           
1 53494U 22099AF  26194.28260551  .00087941  00000+0  51607-2 0  9997
2 53494  97.2850 313.0934 0001885  74.9656 285.1783 15.11341760214954
STARLINK-4429           
1 53495U 22099AG  26194.27714924  .00001289  00000+0  93158-4 0  9995
2 53495  97.2847 311.8643 0001303  95.8063 264.3314 15.05668536214879
STARLINK-4453           
1 53497U 22099AJ  26194.28544365  .00001029  00000+0  75208-4 0  9996
2 53497  97.2839 311.8459 0001589 159.7007 200.4284 15.05662029214879
