OBJECT_NAME,OBJECT_ID,EPOCH,MEAN_MOTION,ECCENTRICITY,INCLINATION,RA_OF_ASC_NODE,ARG_OF_PERICENTER,MEAN_ANOMALY,EPHEMERIS_TYPE,CLASSIFICATION_TYPE,NORAD_CAT_ID,ELEMENT_SET_NO,REV_AT_EPOCH,BSTAR,MEAN_MOTION_DOT,MEAN_MOTION_DDOT
STARLINK-4415,2022-099A,2026-07-13T06:00:02.999808,15.14481339,.00022418,97.2863,313.0292,62.8966,204.0022,0,U,53465,999,578,.44261644E-2,.82242E-3,0
STARLINK-4398,2022-099B,2026-07-13T06:00:02.999808,15.44677401,.00017688,97.6047,319.2973,82.6769,262.4945,0,U,53466,999,593,-.18958841E-1,-.809099E-2,0
STARLINK-4394,2022-099C,2026-07-13T06:00:02.999808,15.79978575,.00008263,97.6027,321.0020,63.1310,185.2412,0,U,53467,999,593,-.55586297E-3,-.10147E-2,0
STARLINK-4400,2022-099D,2026-07-13T07:07:00.723360,15.05657060,.00015902,97.2850,311.9311,121.9426,238.1957,0,U,53468,999,21487,.4451083E-5,.8E-7,0
STARLINK-4399,2022-099E,2026-07-13T06:00:02.999808,15.18062465,.00013799,97.2855,313.0803,79.7590,344.3922,0,U,53469,999,558,.3807883E-1,.831551E-2,0
STARLINK-4393,2022-099F,2026-07-13T07:30:55.969056,15.05653510,.00015617,97.2824,311.9125,109.5549,250.5848,0,U,53470,999,21487,-.29205168E-4,-.478E-5,0
STARLINK-4316,2022-099G,2026-07-13T06:00:02.999808,15.18377123,.00016648,97.2860,313.0317,78.9080,242.5833,0,U,53471,999,573,.38295339E-1,.844758E-2,0
STARLINK-4447,2022-099H,2026-07-13T07:38:54.176640,15.05655976,.00018879,97.2852,311.8955,121.0394,239.1019,0,U,53472,999,21487,.92962733E-4,.1285E-4,0
STARLINK-4383,2022-099J,2026-07-13T06:00:02.999808,15.55364629,.0001522,97.6002,318.0167,63.7537,92.3659,0,U,53473,999,582,.25746617E-2,.178512E-2,0
STARLINK-4445,2022-099K,2026-07-13T06:43:05.119104,15.05656618,.0001401,97.2849,311.9209,106.9688,253.1693,0,U,53474,999,21487,.3674515E-4,.474E-5,0
STARLINK-4389,2022-099L,2026-07-13T06:00:02.999808,15.51686119,.00016034,97.6051,319.4813,91.7893,26.0054,0,U,53475,999,593,-.17941639E-1,-.97609E-2,0
STARLINK-4378,2022-099M,2026-07-12T21:09:13.648608,15.04840386,.00012377,97.3190,311.7034,117.2594,242.8759,0,U,53476,999,21481,.77960392E-4,.1045E-4,0
STARLINK-4412,2022-099N,2026-07-13T06:00:02.999808,15.71051508,.00011428,97.6041,319.6449,59.6734,96.2710,0,U,53477,999,588,.35324659E-2,.467387E-2,0
STARLINK-4433,2022-099P,2026-07-13T07:46:52.404960,15.05658570,.00020678,97.2860,311.8754,138.9015,221.2369,0,U,53478,999,21487,.50854576E-4,.678E-5,0
STARLINK-4436,2022-099Q,2026-07-13T06:00:02.999808,15.12798126,.00012761,97.2840,313.0615,45.2813,64.7744,0,U,53479,999,578,.47436066E-2,.84113E-3,0
STARLINK-4442,2022-099R,2026-07-13T06:00:02.999808,15.62546674,.00015575,97.6038,319.6375,73.8133,160.3412,0,U,53480,999,569,.23652303E-2,.215826E-2,0
STARLINK-4302,2022-099S,2026-07-13T06:00:02.999808,15.55752941,.00016685,97.6071,319.3432,85.7134,77.2879,0,U,53481,999,587,-.13176555E-1,-.831163E-2,0
STARLINK-4360,2022-099T,2026-07-13T06:27:07.596288,15.05704424,.00012303,97.2849,311.9371,107.1465,252.9898,0,U,53482,999,21487,-.78146226E-3,-.1133E-3,0
STARLINK-4426,2022-099V,2026-07-13T06:00:02.999808,15.19725122,.00011551,97.2836,313.0257,54.7038,347.8120,0,U,53484,999,578,.38600515E-2,.83286E-3,0
STARLINK-4430,2022-099W,2026-07-13T06:31:07.217184,15.05654255,.00013283,97.2833,311.9059,105.2517,254.8858,0,U,53485,999,21487,.3154639E-4,.399E-5,0
STARLINK-4431,2022-099X,2026-07-13T06:00:02.999808,15.58972614,.00017567,97.6066,319.8235,85.1374,117.5044,0,U,53486,999,588,-.13680359E-1,-.960304E-2,0
STARLINK-4432,2022-099Y,2026-07-13T06:00:02.999808,15.18840404,.00024377,97.2813,313.0491,47.3207,101.9103,0,U,53487,999,573,.40279665E-2,.84742E-3,0
STARLINK-4421,2022-099Z,2026-07-13T06:00:02.999808,15.16143692,.00019479,97.2840,313.0968,46.5807,193.4670,0,U,53488,999,578,.42385675E-2,.82538E-3,0
STARLINK-4392,2022-099AA,2026-07-13T06:53:39.444576,15.06436239,.00010939,97.2859,311.8959,95.9291,264.2062,0,U,53489,999,21487,.33917623E-3,.4945E-4,0
STARLINK-4387,2022-099AB,2026-07-13T06:00:02.999808,15.40285296,.00016716,97.6049,318.3017,64.3380,60.2841,0,U,53490,999,580,.29346632E-2,.119815E-2,0
STARLINK-4450,2022-099AC,2026-07-13T07:48:41.110848,15.53611042,.00011567,97.6041,320.0419,74.9886,285.1494,0,U,53491,999,21527,-.97728069E-3,-.61827E-3,0
STARLINK-4451,2022-099AD,2026-07-13T06:00:02.999808,15.56604816,.00012679,97.6005,317.1905,84.6288,22.4903,0,U,53492,999,573,.6205435E-2,.467151E-2,0
STARLINK-4340,2022-099AF,2026-07-13T06:46:57.116064,15.11341760,.00018852,97.2850,313.0934,74.9656,285.1783,0,U,53494,999,21495,.51607161E-2,.87941E-3,0
STARLINK-4429,2022-099AG,2026-07-13T06:39:05.694336,15.05668536,.00013036,97.2847,311.8643,95.8063,264.3314,0,U,53495,999,21487,.93158335E-4,.1289E-4,0
STARLINK-4453,2022-099AJ,2026-07-13T06:51:02.331360,15.05662029,.00015897,97.2839,311.8459,159.7007,200.4284,0,U,53497,999,21487,.75208077E-4,.1029E-4,0
